CUTE-1 (CO-55)          
1 27844U 03031E   26132.91289216  .00000190  00000+0  10142-3 0  9994
2 27844  98.6747 141.9148 0008342 290.6840  69.3444 14.24313141186652
CUBESAT XI-IV (CO-57)   
1 27848U 03031J   26132.95398353  .00000166  00000+0  92089-4 0  9999
2 27848  98.6779 141.6963 0008465 311.5693  48.4759 14.23601310186360
CUBESAT XI-V            
1 28895U 05043F   26132.66158956  .00000827  00000+0  13840-3 0  9999
2 28895  98.2946 287.5478 0013166 322.3080  37.7203 14.72535163 96529
CUTE-1.7+APD II (CO-65) 
1 32785U 08021C   26132.91151939  .00002924  00000+0  18848-3 0  9996
2 32785  97.8259 113.6107 0010040 140.3671 219.8293 15.09106238979872
CANX-2                  
1 32790U 08021H   26132.92855171  .00002054  00000+0  14779-3 0  9995
2 32790  97.8626 112.0337 0011183 153.4680 206.7120 15.05359980979502
SEEDS II (CO-66)        
1 32791U 08021J   26132.93248327  .00011933  00000+0  39447-3 0  9991
2 32791  97.7524 129.1841 0005010  84.4541 275.7271 15.31517847981894
SWISSCUBE               
1 35932U 09051B   26132.24860676  .00000616  00000+0  13145-3 0  9999
2 35932  98.4058  39.5092 0006254 336.3034  23.7877 14.62409745883909
BEESAT-1                
1 35933U 09051C   26132.44485308  .00000505  00000+0  11131-3 0  9997
2 35933  98.3987  39.4187 0005088 353.8769   6.2369 14.61659829883964
ITUPSAT1                
1 35935U 09051E   26132.67857995  .00000464  00000+0  10588-3 0  9998
2 35935  98.4072  38.8853 0007481 359.6293   0.4899 14.60384980883551
TISAT 1                 
1 36799U 10035E   26132.82315718  .00012086  00000+0  41456-3 0  9991
2 36799  98.0690  76.2801 0003550  53.3797 306.7768 15.30336159862299
AEROCUBE 4.5A           
1 38767U 12048K   26132.38623218  .00113860  00000+0  66125-3 0  9994
2 38767  64.6292 155.8749 0019245 216.8968 143.0863 15.77683228366988
STRAND-1                
1 39090U 13009E   26132.89675701  .00000175  00000+0  73286-4 0  9993
2 39090  98.3916 314.0015 0008195 344.7153  15.3785 14.37141728691994
BRITE-AUSTRIA           
1 39091U 13009F   26132.75518091  .00000105  00000+0  50465-4 0  9994
2 39091  98.3988 313.0696 0009956 353.0746   7.0301 14.36527478691963
NEE-01 PEGASO           
1 39151U 13018B   26132.89223926  .00001564  00000+0  15433-3 0  9991
2 39151  98.1175 275.8909 0011198 281.4484  78.5477 14.93484271705433
POPACS 2                
1 39269U 13055E   26132.87159821  .00009195  00000+0  15792-3 0  9998
2 39269  80.9929 184.5953 0419220 307.4051  48.9679 14.90404865657957
POPACS 3                
1 39270U 13055F   26132.65096196  .00011360  00000+0  27150-3 0  9999
2 39270  81.0001 267.6896 0554922 178.0579 182.2973 14.55239967633387
ZACUBE-1 (TSHEPISOSAT)  
1 39417U 13066B   26132.87677755  .00003027  00000+0  23831-3 0  9997
2 39417  97.8118  95.0221 0041873  11.9961 348.2250 15.00908497675431
WNISAT-1                
1 39423U 13066H   26132.93722640  .00000298  00000+0  63341-4 0  9993
2 39423  97.7159 284.6044 0162675 343.4342  16.1579 14.58017870661596
TRITON-1                
1 39427U 13066M   26132.97515462  .00002027  00000+0  24766-3 0  9992
2 39427  97.8263  43.5838 0090171 350.2186   9.7268 14.81548105668870
GOMX-1                  
1 39430U 13066Q   26132.97947389  .00001222  00000+0  19015-3 0  9990
2 39430  97.6515 335.6626 0128416 189.9489 169.9173 14.69317557664746
CUBEBUG-2 (LO-74)       
1 39440U 13066AA  26132.82478453  .00001748  00000+0  16626-3 0  9994
2 39440  97.8889  81.6671 0058845 143.2528 217.2748 14.93491684671717
NEE-02 KRYSAOR          
1 39441U 13066AB  26132.80323184  .00000967  00000+0  11153-3 0  9995
2 39441  97.8881  72.2784 0066045 184.4422 175.6216 14.86483003670941
FUNCUBE-1 (AO-73)       
1 39444U 13066AE  26132.91766683  .00005226  00000+0  32995-3 0  9995
2 39444  97.8258 103.6445 0035391 326.5596  33.3396 15.09022737674342
UWE-3                   
1 39446U 13066AG  26132.85338037  .00002072  00000+0  18208-3 0  9995
2 39446  97.8679  88.7041 0050853  77.6887 283.0021 14.96720144672296
BRITE-CA1 (TORONTO)     
1 40020U 14033L   26132.91005510  .00000443  00000+0  74298-4 0  9996
2 40020  97.9688 262.4996 0079292  30.7959 329.7865 14.72627458637029
DUCHIFAT-1              
1 40021U 14033M   26132.12536242  .00050870  00000+0  67127-3 0  9992
2 40021  98.0509 186.4226 0005800 189.1310 170.9839 15.58226206650123
NANOSATC-BR1            
1 40024U 14033Q   26132.32002663  .00009463  00000+0  32574-3 0  9992
2 40024  98.0757 161.5605 0001986 330.4034  29.7092 15.30300900648494
QB50P1                  
1 40025U 14033R   26132.94932258  .00005369  00000+0  26991-3 0  9990
2 40025  98.0982 141.6398 0008370 359.1143   1.0073 15.17699731647686
QB50P2                  
1 40032U 14033Y   26132.89448481  .00003906  00000+0  21499-3 0  9995
2 40032  98.0754 127.5931 0005833 303.1843  56.8828 15.14694835647328
PERSEUS-M2              
1 40037U 14033AD  26132.86817954  .00001128  00000+0  10749-3 0  9992
2 40037  97.9936  82.6972 0013169  60.4929 299.7602 14.95395721645504
